NORAD_CAT_ID,OBJECT_NAME,OBJECT_TYPE,EPOCH,MEAN_MOTION,ECCENTRICITY,INCLINATION,RA_OF_ASC_NODE,ARG_OF_PERICENTER,MEAN_ANOMALY,BSTAR,MEAN_MOTION_DOT,MEAN_MOTION_DDOT,TLE_LINE0,TLE_LINE1,TLE_LINE2,SEMIMAJOR_AXIS,PERIOD,APOGEE,PERIGEE,DECAYED
53012.0,STARLINK-4271,PAYLOAD,2023-09-21 21:50:25,15.08840833,0.0001133,53.2163,173.3882,92.075,268.0371,9.605e-05,1.241e-05,0.0,0 STARLINK-4271,1 53012U 22076AC  23264.91001492  .00001241  00000-0  96050-4 0  9993,2 53012  53.2163 173.3882 0001133  92.0750 268.0371 15.08840833 67017,6917.878,95.438,540.527,538.959,0.0
53012.0,STARLINK-4271,PAYLOAD,2023-09-22 01:01:11,15.08844441,0.0001484,53.2169,172.8017,114.4252,245.6895,0.00015964,2.254e-05,0.0,0 STARLINK-4271,1 53012U 22076AC  23265.04249367  .00002254  00000-0  15964-3 0  9992,2 53012  53.2169 172.8017 0001484 114.4252 245.6895 15.08844441 67507,6917.867,95.437,540.758,538.705,0.0
53012.0,STARLINK-4271,PAYLOAD,2023-09-22 21:41:12,15.08841759,0.0001086,53.2155,168.9311,100.059,260.0525,7.0509e-05,8.35e-06,0.0,0 STARLINK-4271,1 53012U 22076AC  23265.90361680  .00000835  00000-0  70509-4 0  9990,2 53012  53.2155 168.9311 0001086 100.0590 260.0525 15.08841759 67161,6917.875,95.437,540.491,538.989,0.0
53012.0,STARLINK-4271,PAYLOAD,2023-09-23 00:51:58,15.08841808,0.0001031,53.216,168.3356,83.8861,276.2249,0.00023539,3.461e-05,0.0,0 STARLINK-4271,1 53012U 22076AC  23266.03609725  .00003461  00000-0  23539-3 0  9998,2 53012  53.2160 168.3356 0001031  83.8861 276.2249 15.08841808 67650,6917.875,95.437,540.453,539.027,0.0
53012.0,STARLINK-4271,PAYLOAD,2023-09-23 02:27:21,15.08845926,0.000104,53.2165,168.037,82.2531,277.858,0.0002655,3.941e-05,0.0,0 STARLINK-4271,1 53012U 22076AC  23266.10233471  .00003941  00000-0  26550-3 0  9996,2 53012  53.2165 168.0370 0001040  82.2531 277.8580 15.08845926 67194,6917.862,95.437,540.447,539.008,0.0
53012.0,STARLINK-4271,PAYLOAD,2023-09-24 02:18:09,15.08846404,0.0001338,53.2181,163.577,76.7499,283.3643,-1.8545e-05,-5.83e-06,0.0,0 STARLINK-4271,1 53012U 22076AC  23267.09593983 -.00000583  00000-0 -18545-4 0  9999,2 53012  53.2181 163.5770 0001338  76.7499 283.3643 15.08846404 67810,6917.861,95.437,540.651,538.8,0.0
53012.0,STARLINK-4271,PAYLOAD,2023-09-24 21:22:46,15.08842333,0.0001338,53.2165,160.0079,83.6191,276.4953,7.4156e-05,8.93e-06,0.0,0 STARLINK-4271,1 53012U 22076AC  23267.89081839  .00000893  00000-0  74156-4 0  9991,2 53012  53.2165 160.0079 0001338  83.6191 276.4953 15.08842333 67467,6917.873,95.437,540.664,538.813,0.0
53012.0,STARLINK-4271,PAYLOAD,2023-09-25 03:44:19,15.08850544,0.0001317,53.2166,158.8185,76.078,284.0359,0.00021885,3.198e-05,0.0,0 STARLINK-4271,1 53012U 22076AC  23268.15577558  .00003198  00000-0  21885-3 0  9990,2 53012  53.2166 158.8185 0001317  76.0780 284.0359 15.08850544 67972,6917.848,95.437,540.624,538.802,0.0
53012.0,STARLINK-4271,PAYLOAD,2023-09-25 10:05:51,15.08849997,0.0001152,53.2162,157.6289,81.1751,278.9371,0.00017357,2.476e-05,0.0,0 STARLINK-4271,1 53012U 22076AC  23268.42073312  .00002476  00000-0  17357-3 0  9996,2 53012  53.2162 157.6289 0001152  81.1751 278.9371 15.08849997 67541,6917.85,95.437,540.512,538.918,0.0
53012.0,STARLINK-4271,PAYLOAD,2023-09-25 22:48:56,15.08856019,0.0001209,53.215,155.2504,90.6088,269.5043,0.00034815,5.26e-05,0.0,0 STARLINK-4271,1 53012U 22076AC  23268.95065063  .00005260  00000-0  34815-3 0  9990,2 53012  53.2150 155.2504 0001209  90.6088 269.5043 15.08856019 67627,6917.831,95.437,540.533,538.86,0.0
53012.0,STARLINK-4271,PAYLOAD,2023-09-26 01:59:42,15.08865005,0.0001145,53.2157,154.6533,102.2288,257.8832,0.00048394,7.428e-05,0.0,0 STARLINK-4271,1 53012U 22076AC  23269.08312504  .00007428  00000-0  48394-3 0  9995,2 53012  53.2157 154.6533 0001145 102.2288 257.8832 15.08865005 68116,6917.804,95.436,540.461,538.877,0.0
53012.0,STARLINK-4271,PAYLOAD,2023-09-26 19:28:57,15.08830345,0.0001442,53.2167,151.3837,95.9343,264.1814,-0.00021109,-3.645e-05,0.0,0 STARLINK-4271,1 53012U 22076AC  23269.81177796 -.00003645  00000-0 -21109-3 0  9992,2 53012  53.2167 151.3837 0001442  95.9343 264.1814 15.08830345 68220,6917.91,95.438,540.772,538.777,0.0
53012.0,STARLINK-4271,PAYLOAD,2023-09-26 21:04:20,15.08833436,0.0001438,53.2164,151.0864,86.6539,273.4617,-0.0001006,-1.888e-05,0.0,0 STARLINK-4271,1 53012U 22076AC  23269.87802076 -.00001888  00000-0 -10060-3 0  9995,2 53012  53.2164 151.0864 0001438  86.6539 273.4617 15.08833436 67769,6917.9,95.438,540.76,538.771,0.0
53012.0,STARLINK-4271,PAYLOAD,2023-09-26 22:39:44,15.08834122,0.0001457,53.2162,150.7891,85.8052,274.3107,-7.2577e-05,-1.443e-05,0.0,0 STARLINK-4271,1 53012U 22076AC  23269.94426097 -.00001443  00000-0 -72577-4 0  9997,2 53012  53.2162 150.7891 0001457  85.8052 274.3107 15.08834122 67773,6917.898,95.438,540.771,538.755,0.0
53012.0,STARLINK-4271,PAYLOAD,2023-09-27 20:55:08,15.08831316,0.0001585,53.2162,146.627,85.1104,275.0069,4.7638e-05,4.7e-06,0.0,0 STARLINK-4271,1 53012U 22076AC  23270.87162959  .00000470  00000-0  47638-4 0  9992,2 53012  53.2162 146.6270 0001585  85.1104 275.0069 15.08831316 68386,6917.907,95.438,540.868,538.675,0.0
53012.0,STARLINK-4271,PAYLOAD,2023-09-27 22:30:31,15.08834431,0.000149,53.2162,146.3295,85.4827,274.6336,5.8375e-05,6.41e-06,0.0,0 STARLINK-4271,1 53012U 22076AC  23270.93786850  .00000641  00000-0  58375-4 0  9991,2 53012  53.2162 146.3295 0001490  85.4827 274.6336 15.08834431 67922,6917.897,95.438,540.793,538.732,0.0
53012.0,STARLINK-4271,PAYLOAD,2023-09-28 20:45:55,15.08844475,0.0001582,53.2162,142.166,87.7097,272.4076,0.00037071,5.617e-05,0.0,0 STARLINK-4271,1 53012U 22076AC  23271.86522908  .00005617  00000-0  37071-3 0  9993,2 53012  53.2162 142.1660 0001582  87.7097 272.4076 15.08844475 68060,6917.867,95.437,540.826,538.637,0.0
53012.0,STARLINK-4271,PAYLOAD,2023-09-29 22:12:05,15.08855169,0.0001443,53.2157,137.4083,96.6452,263.4704,0.00028019,4.176e-05,0.0,0 STARLINK-4271,1 53012U 22076AC  23272.92506040  .00004176  00000-0  28019-3 0  9991,2 53012  53.2157 137.4083 0001443  96.6452 263.4704 15.08855169 68699,6917.834,95.437,540.697,538.701,0.0
53012.0,STARLINK-4271,PAYLOAD,2023-09-30 07:44:24,15.08849678,0.0001267,53.216,135.6258,98.3405,261.7731,0.00012687,1.732e-05,0.0,0 STARLINK-4271,1 53012U 22076AC  23273.32250031  .00001732  00000-0  12687-3 0  9991,2 53012  53.2160 135.6258 0001267  98.3405 261.7731 15.08849678 68754,6917.851,95.437,540.592,538.839,0.0
53012.0,STARLINK-4271,PAYLOAD,2023-09-30 17:16:43,15.08830387,0.0001399,53.2152,133.8408,85.3129,274.8023,-0.00023198,-3.977e-05,0.0,0 STARLINK-4271,1 53012U 22076AC  23273.71994784 -.00003977  00000-0 -23198-3 0  9998,2 53012  53.2152 133.8408 0001399  85.3129 274.8023 15.08830387 68810,6917.91,95.438,540.743,538.807,0.0
53012.0,STARLINK-4271,PAYLOAD,2023-09-30 23:38:15,15.08839896,0.0001326,53.2151,132.6519,82.1606,277.9536,6.615e-06,-1.83e-06,0.0,0 STARLINK-4271,1 53012U 22076AC  23273.98490550 -.00000183  00000-0  66150-5 0  9991,2 53012  53.2151 132.6519 0001326  82.1606 277.9536 15.08839896 68855,6917.881,95.438,540.663,538.828,0.0
53012.0,STARLINK-4271,PAYLOAD,2023-10-01 07:35:11,15.08845331,0.0001267,53.215,131.1646,86.6433,273.4704,0.00024071,3.546e-05,0.0,0 STARLINK-4271,1 53012U 22076AC  23274.31610421  .00003546  00000-0  24071-3 0  9999,2 53012  53.2150 131.1646 0001267  86.6433 273.4704 15.08845331 68433,6917.864,95.437,540.606,538.853,0.0
53012.0,STARLINK-4271,PAYLOAD,2023-10-01 20:18:16,15.08858743,0.0001249,53.2147,128.7851,81.1453,278.9681,0.00097182,0.0001522,0.0,0 STARLINK-4271,1 53012U 22076AC  23274.84602270  .00015220  00000-0  97182-3 0  9995,2 53012  53.2147 128.7851 0001249  81.1453 278.9681 15.08858743 68515,6917.823,95.436,540.552,538.824,0.0
53012.0,STARLINK-4271,PAYLOAD,2023-10-01 23:29:02,15.08867014,0.0001258,53.2148,128.1901,80.555,279.5584,0.0011376,0.00017877,0.0,0 STARLINK-4271,1 53012U 22076AC  23274.97850008  .00017877  00000-0  11376-2 0  9993,2 53012  53.2148 128.1901 0001258  80.5550 279.5584 15.08867014 69002,6917.798,95.436,540.533,538.793,0.0
53012.0,STARLINK-4271,PAYLOAD,2023-10-02 07:25:58,15.08849261,0.0001195,53.2149,126.7026,90.8766,269.2363,0.00033616,5.067e-05,0.0,0 STARLINK-4271,1 53012U 22076AC  23275.30970146  .00005067  00000-0  33616-3 0  9997,2 53012  53.2149 126.7026 0001195  90.8766 269.2363 15.08849261 69058,6917.852,95.437,540.544,538.89,0.0
53012.0,STARLINK-4271,PAYLOAD,2023-10-02 20:09:03,15.08839189,0.0001371,53.2142,124.3242,90.052,270.063,0.00029452,4.402e-05,0.0,0 STARLINK-4271,1 53012U 22076AC  23275.83962643  .00004402  00000-0  29452-3 0  9993,2 53012  53.2142 124.3242 0001371  90.0520 270.0630 15.08839189 69135,6917.883,95.438,540.696,538.799,0.0
53012.0,STARLINK-4271,PAYLOAD,2023-10-03 07:16:46,15.08835284,0.0001486,53.2145,122.2412,90.5511,269.5651,0.00056231,8.671e-05,0.0,0 STARLINK-4271,1 53012U 22076AC  23276.30331099  .00008671  00000-0  56231-3 0  9998,2 53012  53.2145 122.2412 0001486  90.5511 269.5651 15.08835284 68739,6917.895,95.438,540.788,538.732,0.0
53012.0,STARLINK-4271,PAYLOAD,2023-10-03 19:59:51,15.08846279,0.0001475,53.2145,119.8624,90.2551,269.8611,0.00077859,0.00012127,0.0,0 STARLINK-4271,1 53012U 22076AC  23276.83323145  .00012127  00000-0  77859-3 0  9999,2 53012  53.2145 119.8624 0001475  90.2551 269.8611 15.08846279 69281,6917.861,95.437,540.747,538.706,0.0
53012.0,STARLINK-4271,PAYLOAD,2023-10-04 07:07:32,15.08853245,0.0001455,53.2145,117.781,88.8404,271.2755,0.00072692,0.00011304,0.0,0 STARLINK-4271,1 53012U 22076AC  23277.29690908  .00011304  00000-0  72692-3 0  9990,2 53012  53.2145 117.7810 0001455  88.8404 271.2755 15.08853245 68885,6917.84,95.437,540.711,538.698,0.0
53012.0,STARLINK-4271,PAYLOAD,2023-10-04 19:50:37,15.08869718,0.0001434,53.2151,115.4023,87.3933,272.7223,0.00087716,0.00013711,0.0,0 STARLINK-4271,1 53012U 22076AC  23277.82682064  .00013711  00000-0  87716-3 0  9990,2 53012  53.2151 115.4023 0001434  87.3933 272.7223 15.08869718 68968,6917.79,95.436,540.647,538.663,0.0
